{"type": "FeatureCollection", "features": [ {"type": "Feature", "properties": {"norad_id": 66911, "name": "1998-067XX", "group": "stations", "lat": 51.07130572397653, "lon": 147.47052135113645, "alt_km": 399.44848651071516, "timestamp": "2025-12-27T12:55:13.230804+00:00", "meta": {"OBJECT_NAME": "1998-067XX", "OBJECT_ID": "1998-067XX", "EPOCH": "2025-12-27T04:50:55.382496", "MEAN_MOTION": 15.54101067, "ECCENTRICITY": 0.00034852, "INCLINATION": 51.6304, "RA_OF_ASC_NODE": 70.3654, "ARG_OF_PERICENTER": 298.8958, "MEAN_ANOMALY": 61.1682, "EPHEMERIS_TYPE": 0, "CLASSIFICATION_TYPE": "U", "NORAD_CAT_ID": 66911, "ELEMENT_SET_NO": 999, "REV_AT_EPOCH": 385, "BSTAR": 0.0012899504, "MEAN_MOTION_DOT": 0.00085765, "MEAN_MOTION_DDOT": 0}, "tle": {"line1": "1 66911U 98067XX  25361.20202989  .00085765  00000+0  12900-2 0  9996", "line2": "2 66911  51.6304  70.3654 0003485 298.8958  61.1682 15.54101067  3858"}}, "geometry": {"type": "Point", "coordinates": [147.47052135113645, 51.07130572397653]}}, {"type": "Feature", "properties": {"norad_id": 66912, "name": "1998-067XY", "group": "stations", "lat": -1.6973821431475848, "lon": 67.52031383759342, "alt_km": 408.4179545718871, "timestamp": "2025-12-27T12:55:13.230814+00:00", "meta": {"OBJECT_NAME": "1998-067XY", "OBJECT_ID": "1998-067XY", "EPOCH": "2025-12-27T05:12:20.650752", "MEAN_MOTION": 15.52574078, "ECCENTRICITY": 0.00038721, "INCLINATION": 51.6314, "RA_OF_ASC_NODE": 70.4653, "ARG_OF_PERICENTER": 305.7746, "MEAN_ANOMALY": 54.2884, "EPHEMERIS_TYPE": 0, "CLASSIFICATION_TYPE": "U", "NORAD_CAT_ID": 66912, "ELEMENT_SET_NO": 999, "REV_AT_EPOCH": 385, "BSTAR": 0.00087690241, "MEAN_MOTION_DOT": 0.00054785, "MEAN_MOTION_DDOT": 0}, "tle": {"line1": "1 66912U 98067XY  25361.21690568  .00054785  00000+0  87690-3 0  9999", "line2": "2 66912  51.6314  70.4653 0003872 305.7746  54.2884 15.52574078  3854"}}, "geometry": {"type": "Point", "coordinates": [67.52031383759342, -1.6973821431475848]}}]}